{"type": "FeatureCollection", "features": [ {"type": "Feature", "properties": {"norad_id": 41175, "name": "GSAT0208 (GALILEO 11)", "group": "galileo", "lat": 25.60844952578804, "lon": 125.04624441313814, "alt_km": 23214.86531496322, "timestamp": "2025-12-26T20:30:46.171218+00:00", "meta": {"OBJECT_NAME": "GSAT0208 (GALILEO 11)", "OBJECT_ID": "2015-079B", "EPOCH": "2025-12-24T10:58:05.169792", "MEAN_MOTION": 1.70474188, "ECCENTRICITY": 0.0001919, "INCLINATION": 55.7178, "RA_OF_ASC_NODE": 106.0566, "ARG_OF_PERICENTER": 349.2148, "MEAN_ANOMALY": 10.7717, "EPHEMERIS_TYPE": 0, "CLASSIFICATION_TYPE": "U", "NORAD_CAT_ID": 41175, "ELEMENT_SET_NO": 999, "REV_AT_EPOCH": 6221, "BSTAR": 0, "MEAN_MOTION_DOT": 1.6e-07, "MEAN_MOTION_DDOT": 0}, "tle": {"line1": "1 41175U 15079B   25358.45700428  .00000016  00000+0  00000+0 0  9998", "line2": "2 41175  55.7178 106.0566 0001919 349.2148  10.7717  1.70474188 62212"}}, "geometry": {"type": "Point", "coordinates": [125.04624441313814, 25.60844952578804]}}, {"type": "Feature", "properties": {"norad_id": 41549, "name": "GSAT0211 (GALILEO 14)", "group": "galileo", "lat": -35.224057723830555, "lon": -163.0132993346855, "alt_km": 23220.825434780305, "timestamp": "2025-12-26T20:30:46.171240+00:00", "meta": {"OBJECT_NAME": "GSAT0211 (GALILEO 14)", "OBJECT_ID": "2016-030A", "EPOCH": "2025-12-25T18:06:09.128448", "MEAN_MOTION": 1.70473226, "ECCENTRICITY": 0.00039908, "INCLINATION": 55.1481, "RA_OF_ASC_NODE": 226.465, "ARG_OF_PERICENTER": 16.0221, "MEAN_ANOMALY": 344.0794, "EPHEMERIS_TYPE": 0, "CLASSIFICATION_TYPE": "U", "NORAD_CAT_ID": 41549, "ELEMENT_SET_NO": 999, "REV_AT_EPOCH": 5971, "BSTAR": 0, "MEAN_MOTION_DOT": 7e-07, "MEAN_MOTION_DDOT": 0}, "tle": {"line1": "1 41549U 16030A   25359.75427232  .00000070  00000+0  00000+0 0  9994", "line2": "2 41549  55.1481 226.4650 0003990  16.0221 344.0794  1.70473226 59712"}}, "geometry": {"type": "Point", "coordinates": [-163.0132993346855, -35.224057723830555]}}, {"type": "Feature", "properties": {"norad_id": 41550, "name": "GSAT0210 (GALILEO 13)", "group": "galileo", "lat": 18.354675689369095, "lon": 33.08291742220246, "alt_km": 23218.64404900911, "timestamp": "2025-12-26T20:30:46.171251+00:00", "meta": {"OBJECT_NAME": "GSAT0210 (GALILEO 13)", "OBJECT_ID": "2016-030B", "EPOCH": "2025-12-26T00:16:47.841312", "MEAN_MOTION": 1.70473562, "ECCENTRICITY": 5.771e-05, "INCLINATION": 55.1475, "RA_OF_ASC_NODE": 226.456, "ARG_OF_PERICENTER": 190.7717, "MEAN_ANOMALY": 169.315, "EPHEMERIS_TYPE": 0, "CLASSIFICATION_TYPE": "U", "NORAD_CAT_ID": 41550, "ELEMENT_SET_NO": 999, "REV_AT_EPOCH": 5971, "BSTAR": 0, "MEAN_MOTION_DOT": 7e-07, "MEAN_MOTION_DDOT": 0}, "tle": {"line1": "1 41550U 16030B   25360.01166483  .00000070  00000+0  00000+0 0  9995", "line2": "2 41550  55.1475 226.4560 0000577 190.7717 169.3150  1.70473562 59712"}}, "geometry": {"type": "Point", "coordinates": [33.08291742220246, 18.354675689369095]}}, {"type": "Feature", "properties": {"norad_id": 41859, "name": "GSAT0207 (GALILEO 15)", "group": "galileo", "lat": -10.975941673420232, "lon": 98.17270347985415, "alt_km": 23217.495550436073, "timestamp": "2025-12-26T20:30:46.171261+00:00", "meta": {"OBJECT_NAME": "GSAT0207 (GALILEO 15)", "OBJECT_ID": "2016-069A", "EPOCH": "2025-12-22T04:24:39.710016", "MEAN_MOTION": 1.70474442, "ECCENTRICITY": 0.00024396, "INCLINATION": 55.3874, "RA_OF_ASC_NODE": 105.9888, "ARG_OF_PERICENTER": 317.4324, "MEAN_ANOMALY": 42.5257, "EPHEMERIS_TYPE": 0, "CLASSIFICATION_TYPE": "U", "NORAD_CAT_ID": 41859, "ELEMENT_SET_NO": 999, "REV_AT_EPOCH": 5638, "BSTAR": 0, "MEAN_MOTION_DOT": 6e-08, "MEAN_MOTION_DDOT": 0}, "tle": {"line1": "1 41859U 16069A   25356.18379294  .00000006  00000+0  00000+0 0  9997", "line2": "2 41859  55.3874 105.9888 0002439 317.4324  42.5257  1.70474442 56382"}}, "geometry": {"type": "Point", "coordinates": [98.17270347985415, -10.975941673420232]}}, {"type": "Feature", "properties": {"norad_id": 41860, "name": "GSAT0212 (GALILEO 16)", "group": "galileo", "lat": 53.17485746360058, "lon": 172.9383681006151, "alt_km": 23212.645121084974, "timestamp": "2025-12-26T20:30:46.171271+00:00", "meta": {"OBJECT_NAME": "GSAT0212 (GALILEO 16)", "OBJECT_ID": "2016-069B", "EPOCH": "2025-12-26T03:26:41.871552", "MEAN_MOTION": 1.70474669, "ECCENTRICITY": 0.00020518, "INCLINATION": 55.3873, "RA_OF_ASC_NODE": 105.8745, "ARG_OF_PERICENTER": 19.1308, "MEAN_ANOMALY": 340.872, "EPHEMERIS_TYPE": 0, "CLASSIFICATION_TYPE": "U", "NORAD_CAT_ID": 41860, "ELEMENT_SET_NO": 999, "REV_AT_EPOCH": 5670, "BSTAR": 0, "MEAN_MOTION_DOT": 1.8e-07, "MEAN_MOTION_DDOT": 0}, "tle": {"line1": "1 41860U 16069B   25360.14354018  .00000018  00000+0  00000+0 0  9990", "line2": "2 41860  55.3873 105.8745 0002051  19.1308 340.8720  1.70474669 56708"}}, "geometry": {"type": "Point", "coordinates": [172.9383681006151, 53.17485746360058]}}, {"type": "Feature", "properties": {"norad_id": 41861, "name": "GSAT0213 (GALILEO 17)", "group": "galileo", "lat": -24.98531970216543, "lon": -55.392988933213026, "alt_km": 23222.71490300802, "timestamp": "2025-12-26T20:30:46.171281+00:00", "meta": {"OBJECT_NAME": "GSAT0213 (GALILEO 17)", "OBJECT_ID": "2016-069C", "EPOCH": "2025-12-25T22:11:16.691136", "MEAN_MOTION": 1.70474838, "ECCENTRICITY": 0.00029167, "INCLINATION": 55.3899, "RA_OF_ASC_NODE": 105.8882, "ARG_OF_PERICENTER": 282.7957, "MEAN_ANOMALY": 77.1667, "EPHEMERIS_TYPE": 0, "CLASSIFICATION_TYPE": "U", "NORAD_CAT_ID": 41861, "ELEMENT_SET_NO": 999, "REV_AT_EPOCH": 5656, "BSTAR": 0, "MEAN_MOTION_DOT": 1.8e-07, "MEAN_MOTION_DDOT": 0}, "tle": {"line1": "1 41861U 16069C   25359.92449874  .00000018  00000+0  00000+0 0  9990", "line2": "2 41861  55.3899 105.8882 0002916 282.7957  77.1667  1.70474838 56569"}}, "geometry": {"type": "Point", "coordinates": [-55.392988933213026, -24.98531970216543]}}, {"type": "Feature", "properties": {"norad_id": 41862, "name": "GSAT0214 (GALILEO 18)", "group": "galileo", "lat": 44.70671785866693, "lon": -117.19595206163353, "alt_km": 23221.751073341093, "timestamp": "2025-12-26T20:30:46.171292+00:00", "meta": {"OBJECT_NAME": "GSAT0214 (GALILEO 18)", "OBJECT_ID": "2016-069D", "EPOCH": "2025-12-24T07:27:29.645856", "MEAN_MOTION": 1.70474781, "ECCENTRICITY": 0.00017476, "INCLINATION": 55.3867, "RA_OF_ASC_NODE": 105.9257, "ARG_OF_PERICENTER": 287.2715, "MEAN_ANOMALY": 72.6994, "EPHEMERIS_TYPE": 0, "CLASSIFICATION_TYPE": "U", "NORAD_CAT_ID": 41862, "ELEMENT_SET_NO": 999, "REV_AT_EPOCH": 5666, "BSTAR": 0, "MEAN_MOTION_DOT": 1.5e-07, "MEAN_MOTION_DDOT": 0}, "tle": {"line1": "1 41862U 16069D   25358.31075979  .00000015  00000+0  00000+0 0  9991", "line2": "2 41862  55.3867 105.9257 0001747 287.2715  72.6994  1.70474781 56666"}}, "geometry": {"type": "Point", "coordinates": [-117.19595206163353, 44.70671785866693]}}, {"type": "Feature", "properties": {"norad_id": 43055, "name": "GSAT0215 (GALILEO 19)", "group": "galileo", "lat": -0.3917551053857943, "lon": 46.53514041391071, "alt_km": 23225.967069906823, "timestamp": "2025-12-26T20:30:46.171302+00:00", "meta": {"OBJECT_NAME": "GSAT0215 (GALILEO 19)", "OBJECT_ID": "2017-079A", "EPOCH": "2025-12-24T05:08:42.877824", "MEAN_MOTION": 1.70473983, "ECCENTRICITY": 0.00011857, "INCLINATION": 55.1264, "RA_OF_ASC_NODE": 226.3216, "ARG_OF_PERICENTER": 351.3988, "MEAN_ANOMALY": 8.6951, "EPHEMERIS_TYPE": 0, "CLASSIFICATION_TYPE": "U", "NORAD_CAT_ID": 43055, "ELEMENT_SET_NO": 999, "REV_AT_EPOCH": 5000, "BSTAR": 0, "MEAN_MOTION_DOT": 7.2e-07, "MEAN_MOTION_DDOT": 0}, "tle": {"line1": "1 43055U 17079A   25358.21438516  .00000072  00000+0  00000+0 0  9991", "line2": "2 43055  55.1264 226.3216 0001185 351.3988   8.6951  1.70473983 50002"}}, "geometry": {"type": "Point", "coordinates": [46.53514041391071, -0.3917551053857943]}}, {"type": "Feature", "properties": {"norad_id": 43056, "name": "GSAT0216 (GALILEO 20)", "group": "galileo", "lat": 1.371295632895724, "lon": -132.78176943849905, "alt_km": 23216.801256780644, "timestamp": "2025-12-26T20:30:46.171312+00:00", "meta": {"OBJECT_NAME": "GSAT0216 (GALILEO 20)", "OBJECT_ID": "2017-079B", "EPOCH": "2025-12-25T02:12:49.402944", "MEAN_MOTION": 1.7047407, "ECCENTRICITY": 0.00022728, "INCLINATION": 55.1265, "RA_OF_ASC_NODE": 226.2974, "ARG_OF_PERICENTER": 325.9162, "MEAN_ANOMALY": 34.1608, "EPHEMERIS_TYPE": 0, "CLASSIFICATION_TYPE": "U", "NORAD_CAT_ID": 43056, "ELEMENT_SET_NO": 999, "REV_AT_EPOCH": 5003, "BSTAR": 0, "MEAN_MOTION_DOT": 7e-07, "MEAN_MOTION_DDOT": 0}, "tle": {"line1": "1 43056U 17079B   25359.09223846  .00000070  00000+0  00000+0 0  9995", "line2": "2 43056  55.1265 226.2974 0002272 325.9162  34.1608  1.70474070 50037"}}, "geometry": {"type": "Point", "coordinates": [-132.78176943849905, 1.371295632895724]}}, {"type": "Feature", "properties": {"norad_id": 43057, "name": "GSAT0217 (GALILEO 21)", "group": "galileo", "lat": -36.31436654142545, "lon": 77.08570057425628, "alt_km": 23232.423524369202, "timestamp": "2025-12-26T20:30:46.171322+00:00", "meta": {"OBJECT_NAME": "GSAT0217 (GALILEO 21)", "OBJECT_ID": "2017-079C", "EPOCH": "2025-12-24T03:21:20.619936", "MEAN_MOTION": 1.70473665, "ECCENTRICITY": 0.00026088, "INCLINATION": 55.1247, "RA_OF_ASC_NODE": 226.3216, "ARG_OF_PERICENTER": 4.3447, "MEAN_ANOMALY": 355.754, "EPHEMERIS_TYPE": 0, "CLASSIFICATION_TYPE": "U", "NORAD_CAT_ID": 43057, "ELEMENT_SET_NO": 999, "REV_AT_EPOCH": 5000, "BSTAR": 0, "MEAN_MOTION_DOT": 7.2e-07, "MEAN_MOTION_DDOT": 0}, "tle": {"line1": "1 43057U 17079C   25358.13982199  .00000072  00000+0  00000+0 0  9995", "line2": "2 43057  55.1247 226.3216 0002608   4.3447 355.7540  1.70473665 50008"}}, "geometry": {"type": "Point", "coordinates": [77.08570057425628, -36.31436654142545]}}]}